{
"type": "FeatureCollection",
"name": "area_estudio",
"crs": { "type": "name", "properties": { "name": "urn:ogc:def:crs:OGC:1.3:CRS84" } },
"features": [
{ "type": "Feature", "properties": { "id": 1 }, "geometry": { "type": "Polygon", "coordinates": [ [ [ -72.932538697628914, -41.475034018604255 ], [ -72.936596643962019, -41.473615073569015 ], [ -72.936369690574978, -41.473250508361225 ], [ -72.938121955799417, -41.472960896505356 ], [ -72.946807403851636, -41.475815624395757 ], [ -72.956591353860091, -41.483687271897018 ], [ -72.967998848033801, -41.488896398311084 ], [ -72.975220132975267, -41.486455198600169 ], [ -72.982829438889354, -41.488389329160988 ], [ -72.986450150247009, -41.493000866185774 ], [ -72.987349199586561, -41.498139917500225 ], [ -73.000103002521271, -41.512044336803633 ], [ -73.025647013761514, -41.510405042537585 ], [ -73.04473314731834, -41.524057996957453 ], [ -73.040155981484688, -41.540383456426412 ], [ -73.032270453736075, -41.561366128424602 ], [ -73.044382556004777, -41.563476425592462 ], [ -73.055383621949801, -41.562630648304655 ], [ -73.083503688952618, -41.574467459117635 ], [ -73.085899044192644, -41.581068347152154 ], [ -73.118474743780922, -41.580927451373505 ], [ -73.110177673377976, -41.553756724619532 ], [ -73.097496996423658, -41.514162953549338 ], [ -73.110464602244519, -41.502935840660967 ], [ -73.115996004378928, -41.465011609193382 ], [ -73.117575778330021, -41.40695196153586 ], [ -73.088730890663143, -41.407479551983833 ], [ -73.088667505120213, -41.407509092720076 ], [ -73.044427007518379, -41.398997626764199 ], [ -72.978784221171679, -41.425485675093427 ], [ -72.972326393494626, -41.386462167059101 ], [ -72.850294903121622, -41.347406205603917 ], [ -72.830159000306381, -41.388441071335571 ], [ -72.851707765112621, -41.419990406423899 ], [ -72.822840539454987, -41.429085853093248 ], [ -72.830246287362371, -41.447337531969922 ], [ -72.866674147247267, -41.449954733790904 ], [ -72.866753037014462, -41.488310120259058 ], [ -72.874327437527171, -41.493149038629618 ], [ -72.87529710684808, -41.496560802776486 ], [ -72.885921762416487, -41.499164079137991 ], [ -72.897733433945461, -41.494398331912137 ], [ -72.90019915347861, -41.487437680960198 ], [ -72.908090993200091, -41.486108965915193 ], [ -72.913747629535536, -41.479314482843165 ], [ -72.92510464133656, -41.475247741163052 ], [ -72.927939572697426, -41.475616572550692 ], [ -72.932538697628914, -41.475034018604255 ] ] ] } }
]
}
